{"type": "FeatureCollection", "features": [ {"type": "Feature", "properties": {"norad_id": 30146, "name": "FENGYUN 1C DEB", "group": "fengyun-1c-debris", "lat": -63.66126435450757, "lon": -58.29615861968571, "alt_km": 958.615623895007, "timestamp": "2025-12-03T06:58:43.512148+00:00", "meta": {"OBJECT_NAME": "FENGYUN 1C DEB", "OBJECT_ID": "1999-025TB", "EPOCH": "2025-12-02T09:19:20.136000", "MEAN_MOTION": 13.86570649, "ECCENTRICITY": 0.01787263, "INCLINATION": 98.02, "RA_OF_ASC_NODE": 137.4748, "ARG_OF_PERICENTER": 151.5433, "MEAN_ANOMALY": 269.4583, "EPHEMERIS_TYPE": 0, "CLASSIFICATION_TYPE": "U", "NORAD_CAT_ID": 30146, "ELEMENT_SET_NO": 999, "REV_AT_EPOCH": 95274, "BSTAR": 0.00090953993, "MEAN_MOTION_DOT": 1.165e-05, "MEAN_MOTION_DDOT": 0}, "tle": {"line1": "1 30146U 99025TB  25336.38842750  .00001165  00000+0  90954-3 0  9997", "line2": "2 30146  98.0200 137.4748 0178726 151.5433 269.4583 13.86570649952745"}}, "geometry": {"type": "Point", "coordinates": [-58.29615861968571, -63.66126435450757]}}, {"type": "Feature", "properties": {"norad_id": 30148, "name": "FENGYUN 1C DEB", "group": "fengyun-1c-debris", "lat": -22.105341751974965, "lon": -57.54459747920863, "alt_km": 846.2093247163712, "timestamp": "2025-12-03T06:58:43.512158+00:00", "meta": {"OBJECT_NAME": "FENGYUN 1C DEB", "OBJECT_ID": "1999-025TD", "EPOCH": "2025-12-02T09:31:25.007808", "MEAN_MOTION": 13.88449376, "ECCENTRICITY": 0.01347737, "INCLINATION": 99.5453, "RA_OF_ASC_NODE": 125.4596, "ARG_OF_PERICENTER": 224.1506, "MEAN_ANOMALY": 192.6508, "EPHEMERIS_TYPE": 0, "CLASSIFICATION_TYPE": "U", "NORAD_CAT_ID": 30148, "ELEMENT_SET_NO": 999, "REV_AT_EPOCH": 95373, "BSTAR": 0.0011246483, "MEAN_MOTION_DOT": 1.404e-05, "MEAN_MOTION_DDOT": 0}, "tle": {"line1": "1 30148U 99025TD  25336.39681722  .00001404  00000+0  11246-2 0  9992", "line2": "2 30148  99.5453 125.4596 0134773 224.1506 192.6508 13.88449376953731"}}, "geometry": {"type": "Point", "coordinates": [-57.54459747920863, -22.105341751974965]}}, {"type": "Feature", "properties": {"norad_id": 30150, "name": "FENGYUN 1C DEB", "group": "fengyun-1c-debris", "lat": 44.616502049332325, "lon": 104.65182357585171, "alt_km": 858.2321277082428, "timestamp": "2025-12-03T06:58:43.512168+00:00", "meta": {"OBJECT_NAME": "FENGYUN 1C DEB", "OBJECT_ID": "1999-025TF", "EPOCH": "2025-12-02T15:17:04.445664", "MEAN_MOTION": 13.86575103, "ECCENTRICITY": 0.01467359, "INCLINATION": 98.9941, "RA_OF_ASC_NODE": 113.0136, "ARG_OF_PERICENTER": 3.5835, "MEAN_ANOMALY": 18.2594, "EPHEMERIS_TYPE": 0, "CLASSIFICATION_TYPE": "U", "NORAD_CAT_ID": 30150, "ELEMENT_SET_NO": 999, "REV_AT_EPOCH": 95318, "BSTAR": 0.00058660854, "MEAN_MOTION_DOT": 6.99e-06, "MEAN_MOTION_DDOT": 0}, "tle": {"line1": "1 30150U 99025TF  25336.63685701  .00000699  00000+0  58661-3 0  9991", "line2": "2 30150  98.9941 113.0136 0146735   3.5835  18.2594 13.86575103953180"}}, "geometry": {"type": "Point", "coordinates": [104.65182357585171, 44.616502049332325]}}, {"type": "Feature", "properties": {"norad_id": 30151, "name": "FENGYUN 1C DEB", "group": "fengyun-1c-debris", "lat": -78.25817354048228, "lon": 35.76228640893813, "alt_km": 848.2495353951699, "timestamp": "2025-12-03T06:58:43.512178+00:00", "meta": {"OBJECT_NAME": "FENGYUN 1C DEB", "OBJECT_ID": "1999-025TG", "EPOCH": "2025-12-02T12:53:39.721920", "MEAN_MOTION": 13.84447842, "ECCENTRICITY": 0.01632792, "INCLINATION": 99.0636, "RA_OF_ASC_NODE": 344.8641, "ARG_OF_PERICENTER": 306.3076, "MEAN_ANOMALY": 178.5219, "EPHEMERIS_TYPE": 0, "CLASSIFICATION_TYPE": "U", "NORAD_CAT_ID": 30151, "ELEMENT_SET_NO": 999, "REV_AT_EPOCH": 95104, "BSTAR": 0.00088771555, "MEAN_MOTION_DOT": 1.059e-05, "MEAN_MOTION_DDOT": 0}, "tle": {"line1": "1 30151U 99025TG  25336.53726530  .00001059  00000+0  88772-3 0  9994", "line2": "2 30151  99.0636 344.8641 0163279 306.3076 178.5219 13.84447842951045"}}, "geometry": {"type": "Point", "coordinates": [35.76228640893813, -78.25817354048228]}}, {"type": "Feature", "properties": {"norad_id": 30152, "name": "FENGYUN 1C DEB", "group": "fengyun-1c-debris", "lat": -14.255257522527806, "lon": -162.51301155235677, "alt_km": 977.4444305743109, "timestamp": "2025-12-03T06:58:43.512188+00:00", "meta": {"OBJECT_NAME": "FENGYUN 1C DEB", "OBJECT_ID": "1999-025TH", "EPOCH": "2025-12-02T13:51:16.155648", "MEAN_MOTION": 13.96580302, "ECCENTRICITY": 0.01609395, "INCLINATION": 99.0809, "RA_OF_ASC_NODE": 194.4539, "ARG_OF_PERICENTER": 113.3961, "MEAN_ANOMALY": 248.4219, "EPHEMERIS_TYPE": 0, "CLASSIFICATION_TYPE": "U", "NORAD_CAT_ID": 30152, "ELEMENT_SET_NO": 999, "REV_AT_EPOCH": 95236, "BSTAR": 0.0026868713, "MEAN_MOTION_DOT": 4.107e-05, "MEAN_MOTION_DDOT": 0}, "tle": {"line1": "1 30152U 99025TH  25336.57727032  .00004107  00000+0  26869-2 0  9992", "line2": "2 30152  99.0809 194.4539 0160939 113.3961 248.4219 13.96580302952367"}}, "geometry": {"type": "Point", "coordinates": [-162.51301155235677, -14.255257522527806]}}, {"type": "Feature", "properties": {"norad_id": 30153, "name": "FENGYUN 1C DEB", "group": "fengyun-1c-debris", "lat": -47.77925001918055, "lon": 134.9457870779747, "alt_km": 1114.1728881407198, "timestamp": "2025-12-03T06:58:43.512199+00:00", "meta": {"OBJECT_NAME": "FENGYUN 1C DEB", "OBJECT_ID": "1999-025TJ", "EPOCH": "2025-12-02T13:02:43.527840", "MEAN_MOTION": 13.78724717, "ECCENTRICITY": 0.02009163, "INCLINATION": 100.4663, "RA_OF_ASC_NODE": 325.8754, "ARG_OF_PERICENTER": 31.4493, "MEAN_ANOMALY": 91.2249, "EPHEMERIS_TYPE": 0, "CLASSIFICATION_TYPE": "U", "NORAD_CAT_ID": 30153, "ELEMENT_SET_NO": 999, "REV_AT_EPOCH": 94634, "BSTAR": 0.0012750824, "MEAN_MOTION_DOT": 1.454e-05, "MEAN_MOTION_DDOT": 0}, "tle": {"line1": "1 30153U 99025TJ  25336.54355935  .00001454  00000+0  12751-2 0  9996", "line2": "2 30153 100.4663 325.8754 0200916  31.4493  91.2249 13.78724717946340"}}, "geometry": {"type": "Point", "coordinates": [134.9457870779747, -47.77925001918055]}}, {"type": "Feature", "properties": {"norad_id": 30154, "name": "FENGYUN 1C DEB", "group": "fengyun-1c-debris", "lat": -55.38777120307724, "lon": -172.44632481497317, "alt_km": 819.0389176417384, "timestamp": "2025-12-03T06:58:43.512209+00:00", "meta": {"OBJECT_NAME": "FENGYUN 1C DEB", "OBJECT_ID": "1999-025TK", "EPOCH": "2025-12-02T02:15:41.257728", "MEAN_MOTION": 13.85922523, "ECCENTRICITY": 0.01824653, "INCLINATION": 98.4506, "RA_OF_ASC_NODE": 18.9121, "ARG_OF_PERICENTER": 227.7645, "MEAN_ANOMALY": 161.336, "EPHEMERIS_TYPE": 0, "CLASSIFICATION_TYPE": "U", "NORAD_CAT_ID": 30154, "ELEMENT_SET_NO": 999, "REV_AT_EPOCH": 94837, "BSTAR": 0.0017171262, "MEAN_MOTION_DOT": 2.209e-05, "MEAN_MOTION_DDOT": 0}, "tle": {"line1": "1 30154U 99025TK  25336.09422752  .00002209  00000+0  17171-2 0  9999", "line2": "2 30154  98.4506  18.9121 0182465 227.7645 161.3360 13.85922523948379"}}, "geometry": {"type": "Point", "coordinates": [-172.44632481497317, -55.38777120307724]}}, {"type": "Feature", "properties": {"norad_id": 30155, "name": "FENGYUN 1C DEB", "group": "fengyun-1c-debris", "lat": 29.989677561053355, "lon": -123.6808365261151, "alt_km": 1121.2934352133889, "timestamp": "2025-12-03T06:58:43.512219+00:00", "meta": {"OBJECT_NAME": "FENGYUN 1C DEB", "OBJECT_ID": "1999-025TL", "EPOCH": "2025-12-02T04:02:43.571040", "MEAN_MOTION": 13.73739493, "ECCENTRICITY": 0.02419715, "INCLINATION": 99.7526, "RA_OF_ASC_NODE": 49.4781, "ARG_OF_PERICENTER": 11.3078, "MEAN_ANOMALY": 349.3374, "EPHEMERIS_TYPE": 0, "CLASSIFICATION_TYPE": "U", "NORAD_CAT_ID": 30155, "ELEMENT_SET_NO": 999, "REV_AT_EPOCH": 93719, "BSTAR": 0.0020888045, "MEAN_MOTION_DOT": 2.365e-05, "MEAN_MOTION_DDOT": 0}, "tle": {"line1": "1 30155U 99025TL  25336.16855985  .00002365  00000+0  20888-2 0  9998", "line2": "2 30155  99.7526  49.4781 0241971  11.3078 349.3374 13.73739493937192"}}, "geometry": {"type": "Point", "coordinates": [-123.6808365261151, 29.989677561053355]}}, {"type": "Feature", "properties": {"norad_id": 30156, "name": "FENGYUN 1C DEB", "group": "fengyun-1c-debris", "lat": 17.62284834025406, "lon": 127.670291630425, "alt_km": 1046.5154967217795, "timestamp": "2025-12-03T06:58:43.512229+00:00", "meta": {"OBJECT_NAME": "FENGYUN 1C DEB", "OBJECT_ID": "1999-025TM", "EPOCH": "2025-12-02T10:03:35.650368", "MEAN_MOTION": 13.8075041, "ECCENTRICITY": 0.02002303, "INCLINATION": 98.9173, "RA_OF_ASC_NODE": 303.9885, "ARG_OF_PERICENTER": 290.6447, "MEAN_ANOMALY": 223.0452, "EPHEMERIS_TYPE": 0, "CLASSIFICATION_TYPE": "U", "NORAD_CAT_ID": 30156, "ELEMENT_SET_NO": 999, "REV_AT_EPOCH": 94548, "BSTAR": 0.0021628898, "MEAN_MOTION_DOT": 2.605e-05, "MEAN_MOTION_DDOT": 0}, "tle": {"line1": "1 30156U 99025TM  25336.41916262  .00002605  00000+0  21629-2 0  9994", "line2": "2 30156  98.9173 303.9885 0200230 290.6447 223.0452 13.80750410945486"}}, "geometry": {"type": "Point", "coordinates": [127.670291630425, 17.62284834025406]}}, {"type": "Feature", "properties": {"norad_id": 30157, "name": "FENGYUN 1C DEB", "group": "fengyun-1c-debris", "lat": 59.043795695362405, "lon": 59.261118863351896, "alt_km": 761.5017198185715, "timestamp": "2025-12-03T06:58:43.512239+00:00", "meta": {"OBJECT_NAME": "FENGYUN 1C DEB", "OBJECT_ID": "1999-025TN", "EPOCH": "2025-12-02T06:01:25.021920", "MEAN_MOTION": 14.44832563, "ECCENTRICITY": 0.0036914, "INCLINATION": 98.7167, "RA_OF_ASC_NODE": 73.0144, "ARG_OF_PERICENTER": 223.5946, "MEAN_ANOMALY": 191.4647, "EPHEMERIS_TYPE": 0, "CLASSIFICATION_TYPE": "U", "NORAD_CAT_ID": 30157, "ELEMENT_SET_NO": 999, "REV_AT_EPOCH": 97921, "BSTAR": 0.0027288, "MEAN_MOTION_DOT": 9.533e-05, "MEAN_MOTION_DDOT": 0}, "tle": {"line1": "1 30157U 99025TN  25336.25098405  .00009533  00000+0  27288-2 0  9991", "line2": "2 30157  98.7167  73.0144 0036914 223.5946 191.4647 14.44832563979219"}}, "geometry": {"type": "Point", "coordinates": [59.261118863351896, 59.043795695362405]}}]}